[{"OBJECT_NAME":"OBJECT V","OBJECT_ID":"2023-085V","EPOCH":"2026-03-09T21:44:00.165408","MEAN_MOTION":15.30745852,"ECCENTRICITY":0.00069081,"INCLINATION":97.4843,"RA_OF_ASC_NODE":179.3833,"ARG_OF_PERICENTER":71.0503,"MEAN_ANOMALY":289.1485,"EPHEMERIS_TYPE":0,"CLASSIFICATION_TYPE":"U","NORAD_CAT_ID":57023,"ELEMENT_SET_NO":999,"REV_AT_EPOCH":15149,"BSTAR":0.00067780507,"MEAN_MOTION_DOT":0.00020109,"MEAN_MOTION_DDOT":0},{"OBJECT_NAME":"STARLINK-31838","OBJECT_ID":"2024-118T","EPOCH":"2026-03-09T03:49:12.104832","MEAN_MOTION":15.30209891,"ECCENTRICITY":0.00011058,"INCLINATION":53.1616,"RA_OF_ASC_NODE":29.2881,"ARG_OF_PERICENTER":105.1855,"MEAN_ANOMALY":254.9268,"EPHEMERIS_TYPE":0,"CLASSIFICATION_TYPE":"U","NORAD_CAT_ID":60130,"ELEMENT_SET_NO":999,"REV_AT_EPOCH":9561,"BSTAR":0.0001883876,"MEAN_MOTION_DOT":5.226e-5,"MEAN_MOTION_DDOT":0}]
